{
    "links": {
        "self": "http://www.neowsapp.com/rest/v1/neo/3437792?api_key=iIulBulltgU6a56xZRHN4H3l9WmuAYTsLGpBGhQ2"
    },
    "id": "3437792",
    "neo_reference_id": "3437792",
    "name": "(2008 VB4)",
    "designation": "2008 VB4",
    "nasa_jpl_url": "http://ssd.jpl.nasa.gov/sbdb.cgi?sstr=3437792",
    "absolute_magnitude_h": 28.2,
    "estimated_diameter": {
        "kilometers": {
            "estimated_diameter_min": 0.0060891262,
            "estimated_diameter_max": 0.0136157002
        },
        "meters": {
            "estimated_diameter_min": 6.0891262211,
            "estimated_diameter_max": 13.6157001539
        },
        "miles": {
            "estimated_diameter_min": 0.0037836064,
            "estimated_diameter_max": 0.0084604012
        },
        "feet": {
            "estimated_diameter_min": 19.9774488711,
            "estimated_diameter_max": 44.6709336928
        }
    },
    "is_potentially_hazardous_asteroid": false,
    "close_approach_data": [
        {
            "close_approach_date": "2008-11-03",
            "close_approach_date_full": "2008-Nov-03 19:54",
            "epoch_date_close_approach": 1225742040000,
            "relative_velocity": {
                "kilometers_per_second": "11.7284845937",
                "kilometers_per_hour": "42222.544537171",
                "miles_per_hour": "26235.4471875549"
            },
            "miss_distance": {
                "astronomical": "0.0019395392",
                "lunar": "0.7544807488",
                "kilometers": "290150.933101504",
                "miles": "180291.4296045952"
            },
            "orbiting_body": "Moon"
        },
        {
            "close_approach_date": "2008-11-04",
            "close_approach_date_full": "2008-Nov-04 03:03",
            "epoch_date_close_approach": 1225767780000,
            "relative_velocity": {
                "kilometers_per_second": "12.2720897169",
                "kilometers_per_hour": "44179.522980926",
                "miles_per_hour": "27451.4374877871"
            },
            "miss_distance": {
                "astronomical": "0.0034583714",
                "lunar": "1.3453064746",
                "kilometers": "517364.995108918",
                "miles": "321475.7009343484"
            },
            "orbiting_body": "Earth"
        }
    ],
    "orbital_data": {
        "orbit_id": "6",
        "orbit_determination_date": "2017-04-06 09:02:14",
        "first_observation_date": "2008-11-06",
        "last_observation_date": "2008-11-06",
        "data_arc_in_days": null,
        "observations_used": 12,
        "orbit_uncertainty": "9",
        "minimum_orbit_intersection": ".000511755",
        "jupiter_tisserand_invariant": "3.269",
        "epoch_osculation": "2454776.5",
        "eccentricity": ".617704508547725",
        "semi_major_axis": "2.353462315610917",
        "inclination": ".05710946669735955",
        "ascending_node_longitude": "189.411912346141",
        "orbital_period": "1318.740365668117",
        "perihelion_distance": ".8997180325608848",
        "perihelion_argument": "171.2134590947666",
        "aphelion_distance": "3.80720659866095",
        "perihelion_time": "2454744.651057811132",
        "mean_anomaly": "8.694371907076357",
        "mean_motion": ".2729877763449003",
        "equinox": "J2000",
        "orbit_class": {
            "orbit_class_type": "APO",
            "orbit_class_description": "Near-Earth asteroid orbits which cross the Earth’s orbit similar to that of 1862 Apollo",
            "orbit_class_range": "a (semi-major axis) > 1.0 AU; q (perihelion) < 1.017 AU"
        }
    },
    "is_sentry_object": false
}